{
  "type": "FeatureCollection",
  "features": [
    {
      "type": "Feature",
      "properties": {
        "norad_id": 27954,
        "name": "GALAXY 13 (HORIZONS-1)",
        "group": "intelsat",
        "lat": 0.21164626571032602,
        "lon": 98.17415390421483,
        "alt_km": 35794.034985299644,
        "timestamp": "2025-12-15T10:55:20.797378+00:00",
        "meta_object_name": "GALAXY 13 (HORIZONS-1)",
        "meta_object_id": "2003-044A",
        "meta_epoch": "2025-12-14T17:50:28.286880",
        "meta_mean_motion": 1.00272435,
        "meta_eccentricity": 0.00020726,
        "meta_inclination": 0.941,
        "meta_ra_of_asc_node": 86.4423,
        "meta_arg_of_pericenter": 171.732,
        "meta_mean_anomaly": 303.097,
        "meta_ephemeris_type": 0,
        "meta_classification_type": "U",
        "meta_norad_cat_id": 27954,
        "meta_element_set_no": 999,
        "meta_rev_at_epoch": 4472,
        "meta_bstar": 0,
        "meta_mean_motion_dot": 1.52e-06,
        "meta_mean_motion_ddot": 0,
        "tle_line1": "1 27954U 03044A   25348.74338295  .00000152  00000+0  00000+0 0  9997",
        "tle_line2": "2 27954   0.9410  86.4423 0002072 171.7320 303.0970  1.00272435 44725"
      },
      "geometry": {
        "type": "Point",
        "coordinates": [
          98.17415390421483,
          0.21164626571032602
        ]
      }
    },
    {
      "type": "Feature",
      "properties": {
        "norad_id": 28358,
        "name": "INTELSAT 10-02",
        "group": "intelsat",
        "lat": -0.016213918699334768,
        "lon": -112.78942469458009,
        "alt_km": 35783.57473099249,
        "timestamp": "2025-12-15T10:55:20.797391+00:00",
        "meta_object_name": "INTELSAT 10-02",
        "meta_object_id": "2004-022A",
        "meta_epoch": "2025-12-14T21:58:27.035616",
        "meta_mean_motion": 1.00271245,
        "meta_eccentricity": 0.00011131,
        "meta_inclination": 0.0251,
        "meta_ra_of_asc_node": 71.4031,
        "meta_arg_of_pericenter": 231.8182,
        "meta_mean_anomaly": 109.2558,
        "meta_ephemeris_type": 0,
        "meta_classification_type": "U",
        "meta_norad_cat_id": 28358,
        "meta_element_set_no": 999,
        "meta_rev_at_epoch": 7870,
        "meta_bstar": 0,
        "meta_mean_motion_dot": 9e-08,
        "meta_mean_motion_ddot": 0,
        "tle_line1": "1 28358U 04022A   25348.91559069  .00000009  00000+0  00000+0 0  9997",
        "tle_line2": "2 28358   0.0251  71.4031 0001113 231.8182 109.2558  1.00271245 78707"
      },
      "geometry": {
        "type": "Point",
        "coordinates": [
          -112.78942469458009,
          -0.016213918699334768
        ]
      }
    },
    {
      "type": "Feature",
      "properties": {
        "norad_id": 28626,
        "name": "XM-3 (RHYTHM)",
        "group": "intelsat",
        "lat": -0.17414267247662377,
        "lon": -10.397058974206516,
        "alt_km": 36153.38240018003,
        "timestamp": "2025-12-15T10:55:20.797403+00:00",
        "meta_object_name": "XM-3 (RHYTHM)",
        "meta_object_id": "2005-008A",
        "meta_epoch": "2025-12-14T22:28:24.167712",
        "meta_mean_motion": 0.98951535,
        "meta_eccentricity": 0.00016705,
        "meta_inclination": 0.1803,
        "meta_ra_of_asc_node": 81.7265,
        "meta_arg_of_pericenter": 274.808,
        "meta_mean_anomaly": 168.3001,
        "meta_ephemeris_type": 0,
        "meta_classification_type": "U",
        "meta_norad_cat_id": 28626,
        "meta_element_set_no": 999,
        "meta_rev_at_epoch": 4077,
        "meta_bstar": 0,
        "meta_mean_motion_dot": -7.4e-07,
        "meta_mean_motion_ddot": 0,
        "tle_line1": "1 28626U 05008A   25348.93639083 -.00000074  00000+0  00000+0 0  9990",
        "tle_line2": "2 28626   0.1803  81.7265 0001670 274.8080 168.3001  0.98951535 40772"
      },
      "geometry": {
        "type": "Point",
        "coordinates": [
          -10.397058974206516,
          -0.17414267247662377
        ]
      }
    },
    {
      "type": "Feature",
      "properties": {
        "norad_id": 28659,
        "name": "DIRECTV 8",
        "group": "intelsat",
        "lat": 0.025794864702743583,
        "lon": 129.12345885158737,
        "alt_km": 35795.4558255393,
        "timestamp": "2025-12-15T10:55:20.797415+00:00",
        "meta_object_name": "DIRECTV 8",
        "meta_object_id": "2005-019A",
        "meta_epoch": "2025-12-14T09:56:38.487840",
        "meta_mean_motion": 1.00272293,
        "meta_eccentricity": 0.00029444,
        "meta_inclination": 0.0271,
        "meta_ra_of_asc_node": 73.128,
        "meta_arg_of_pericenter": 196.2382,
        "meta_mean_anomaly": 204.0852,
        "meta_ephemeris_type": 0,
        "meta_classification_type": "U",
        "meta_norad_cat_id": 28659,
        "meta_element_set_no": 999,
        "meta_rev_at_epoch": 7522,
        "meta_bstar": 0,
        "meta_mean_motion_dot": 1.9e-07,
        "meta_mean_motion_ddot": 0,
        "tle_line1": "1 28659U 05019A   25348.41433435  .00000019  00000+0  00000+0 0  9992",
        "tle_line2": "2 28659   0.0271  73.1280 0002944 196.2382 204.0852  1.00272293 75226"
      },
      "geometry": {
        "type": "Point",
        "coordinates": [
          129.12345885158737,
          0.025794864702743583
        ]
      }
    },
    {
      "type": "Feature",
      "properties": {
        "norad_id": 28702,
        "name": "GALAXY 28 (G-28)",
        "group": "intelsat",
        "lat": 2.767004621377927,
        "lon": 159.4536776142566,
        "alt_km": 35789.78744381957,
        "timestamp": "2025-12-15T10:55:20.797444+00:00",
        "meta_object_name": "GALAXY 28 (G-28)",
        "meta_object_id": "2005-022A",
        "meta_epoch": "2025-12-14T21:33:29.427264",
        "meta_mean_motion": 1.00271374,
        "meta_eccentricity": 0.00028519,
        "meta_inclination": 2.8246,
        "meta_ra_of_asc_node": 81.2568,
        "meta_arg_of_pericenter": 187.2393,
        "meta_mean_anomaly": 49.997,
        "meta_ephemeris_type": 0,
        "meta_classification_type": "U",
        "meta_norad_cat_id": 28702,
        "meta_element_set_no": 999,
        "meta_rev_at_epoch": 5012,
        "meta_bstar": 0,
        "meta_mean_motion_dot": -1.69e-06,
        "meta_mean_motion_ddot": 0,
        "tle_line1": "1 28702U 05022A   25348.89825726 -.00000169  00000+0  00000+0 0  9992",
        "tle_line2": "2 28702   2.8246  81.2568 0002851 187.2393  49.9970  1.00271374 50123"
      },
      "geometry": {
        "type": "Point",
        "coordinates": [
          159.4536776142566,
          2.767004621377927
        ]
      }
    },
    {
      "type": "Feature",
      "properties": {
        "norad_id": 29236,
        "name": "GALAXY 16 (G-16)",
        "group": "intelsat",
        "lat": 0.021861047456998243,
        "lon": 149.15938020604318,
        "alt_km": 35790.59326509946,
        "timestamp": "2025-12-15T10:55:20.797457+00:00",
        "meta_object_name": "GALAXY 16 (G-16)",
        "meta_object_id": "2006-023A",
        "meta_epoch": "2025-12-14T21:30:29.714400",
        "meta_mean_motion": 1.00272377,
        "meta_eccentricity": 0.00024685,
        "meta_inclination": 0.0467,
        "meta_ra_of_asc_node": 146.4142,
        "meta_arg_of_pericenter": 119.3284,
        "meta_mean_anomaly": 41.6881,
        "meta_ephemeris_type": 0,
        "meta_classification_type": "U",
        "meta_norad_cat_id": 29236,
        "meta_element_set_no": 999,
        "meta_rev_at_epoch": 7112,
        "meta_bstar": 0,
        "meta_mean_motion_dot": -1.07e-06,
        "meta_mean_motion_ddot": 0,
        "tle_line1": "1 29236U 06023A   25348.89617725 -.00000107  00000+0  00000+0 0  9997",
        "tle_line2": "2 29236   0.0467 146.4142 0002468 119.3284  41.6881  1.00272377 71129"
      },
      "geometry": {
        "type": "Point",
        "coordinates": [
          149.15938020604318,
          0.021861047456998243
        ]
      }
    },
    {
      "type": "Feature",
      "properties": {
        "norad_id": 29494,
        "name": "DIRECTV 9S",
        "group": "intelsat",
        "lat": 1.7512472799188736,
        "lon": 146.93461529377427,
        "alt_km": 35792.14156354258,
        "timestamp": "2025-12-15T10:55:20.797469+00:00",
        "meta_object_name": "DIRECTV 9S",
        "meta_object_id": "2006-043A",
        "meta_epoch": "2025-12-14T21:29:52.273824",
        "meta_mean_motion": 1.00271938,
        "meta_eccentricity": 0.00029041,
        "meta_inclination": 1.9457,
        "meta_ra_of_asc_node": 83.1896,
        "meta_arg_of_pericenter": 184.7766,
        "meta_mean_anomaly": 37.0977,
        "meta_ephemeris_type": 0,
        "meta_classification_type": "U",
        "meta_norad_cat_id": 29494,
        "meta_element_set_no": 999,
        "meta_rev_at_epoch": 4953,
        "meta_bstar": 0,
        "meta_mean_motion_dot": -9.4e-07,
        "meta_mean_motion_ddot": 0,
        "tle_line1": "1 29494U 06043A   25348.89574391 -.00000094  00000+0  00000+0 0  9991",
        "tle_line2": "2 29494   1.9457  83.1896 0002904 184.7766  37.0977  1.00271938 49530"
      },
      "geometry": {
        "type": "Point",
        "coordinates": [
          146.93461529377427,
          1.7512472799188736
        ]
      }
    }
  ]
}